JINJUSAT-1B             
1 63210U 25052A   26068.66363707  .00019955  00000+0  68430-3 0  9998
2 63210  97.4113 325.4613 0005550  82.1930 277.9941 15.30194857 54866
STARLINK-34892          
1 65350U 25189AD  26068.65268181  .00034458  00000+0  11708-2 0  9995
2 65350  53.1593 206.7315 0000939  90.7848 269.3260 15.30181212 31059
